start=new Date('2022-04-17T00:00:00.000Z').valueOf();
sats=[{"MEAN_MOTION_DOT":"0.00001007","NORAD_CAT_ID":"47780","COUNTRY_CODE":"US","MEAN_MOTION":"15.06410667","DECAY_DATE":null,"OBJECT_ID":"2021-017BL","EPHEMERIS_TYPE":"0","MEAN_MOTION_DDOT":"0.0000000000000","CENTER_NAME":"EARTH","REF_FRAME":"TEME","RCS_SIZE":"LARGE","ARG_OF_PERICENTER":"45.7456","OBJECT_NAME":"STARLINK-2213","TLE_LINE1":"1 47780U 21017BL  22106.77342486  .00001007  00000-0  86467-4 0  9992","ELEMENT_SET_NO":"999","LAUNCH_DATE":"2021-03-04","MEAN_ANOMALY":"314.3703","FILE":"3404767","SITE":"AFETR","BSTAR":"0.00008646700000","PERIOD":"95.591","APOAPSIS":"548.619","PERIAPSIS":"545.742","TIME_SYSTEM":"UTC","TLE_LINE2":"2 47780  53.0461 119.3586 0002077  45.7456 314.3703 15.06410667 63317","OBJECT_TYPE":"PAYLOAD","ECCENTRICITY":"0.00020770","INCLINATION":"53.0461","RA_OF_ASC_NODE":"119.3586","CLASSIFICATION_TYPE":"U","GP_ID":"201419882","SEMIMAJOR_AXIS":"6925.316","REV_AT_EPOCH":"6331","EPOCH":"2022-04-16T18:33:43.907904","MEAN_ELEMENT_THEORY":"SGP4"},{"COUNTRY_CODE":"US","MEAN_MOTION":"15.06396344","NORAD_CAT_ID":"47781","MEAN_MOTION_DOT":"-0.00002360","EPHEMERIS_TYPE":"0","OBJECT_ID":"2021-017BM","DECAY_DATE":null,"OBJECT_NAME":"STARLINK-2223","ARG_OF_PERICENTER":"51.7734","RCS_SIZE":"LARGE","REF_FRAME":"TEME","CENTER_NAME":"EARTH","MEAN_MOTION_DDOT":"0.0000000000000","MEAN_ANOMALY":"308.3416","LAUNCH_DATE":"2021-03-04","ELEMENT_SET_NO":"999","TLE_LINE1":"1 47781U 21017BM  22106.87295476 -.00002360  00000-0 -13962-3 0  9994","APOAPSIS":"548.467","PERIOD":"95.592","BSTAR":"-0.00013962000000","SITE":"AFETR","FILE":"3404767","ECCENTRICITY":"0.00017940","OBJECT_TYPE":"PAYLOAD","TLE_LINE2":"2 47781  53.0511 118.8943 0001794  51.7734 308.3416 15.06396344 63281","TIME_SYSTEM":"UTC","PERIAPSIS":"545.982","GP_ID":"201419632","RA_OF_ASC_NODE":"118.8943","INCLINATION":"53.0511","CLASSIFICATION_TYPE":"U","MEAN_ELEMENT_THEORY":"SGP4","EPOCH":"2022-04-16T20:57:03.291264","REV_AT_EPOCH":"6328","SEMIMAJOR_AXIS":"6925.360"},{"RCS_SIZE":"LARGE","OBJECT_NAME":"STARLINK-2257","ARG_OF_PERICENTER":"46.3667","CENTER_NAME":"EARTH","MEAN_MOTION_DDOT":"0.0000000000000","REF_FRAME":"TEME","MEAN_ANOMALY":"313.7476","ELEMENT_SET_NO":"999","LAUNCH_DATE":"2021-03-11","TLE_LINE1":"1 47787U 21018A   22106.62599456 -.00002137  00000-0 -12460-3 0  9993","MEAN_MOTION":"15.06398056","COUNTRY_CODE":"US","MEAN_MOTION_DOT":"-0.00002137","NORAD_CAT_ID":"47787","EPHEMERIS_TYPE":"0","DECAY_DATE":null,"OBJECT_ID":"2021-018A","RA_OF_ASC_NODE":"159.9991","INCLINATION":"53.0537","CLASSIFICATION_TYPE":"U","GP_ID":"201420884","MEAN_ELEMENT_THEORY":"SGP4","SEMIMAJOR_AXIS":"6925.355","EPOCH":"2022-04-16T15:01:25.929984","REV_AT_EPOCH":"6210","SITE":"AFETR","PERIOD":"95.592","APOAPSIS":"548.512","BSTAR":"-0.00012460000000","FILE":"3404767","ECCENTRICITY":"0.00018660","TIME_SYSTEM":"UTC","PERIAPSIS":"545.927","OBJECT_TYPE":"PAYLOAD","TLE_LINE2":"2 47787  53.0537 159.9991 0001866  46.3667 313.7476 15.06398056 62107"},{"NORAD_CAT_ID":"47788","MEAN_MOTION_DOT":"-0.00001003","COUNTRY_CODE":"US","MEAN_MOTION":"15.06401873","OBJECT_ID":"2021-018B","DECAY_DATE":null,"EPHEMERIS_TYPE":"0","REF_FRAME":"TEME","MEAN_MOTION_DDOT":"0.0000000000000","CENTER_NAME":"EARTH","ARG_OF_PERICENTER":"43.2773","OBJECT_NAME":"STARLINK-2314","RCS_SIZE":"LARGE","TLE_LINE1":"1 47788U 21018B   22106.77020622 -.00001003  00000-0 -48429-4 0  9990","ELEMENT_SET_NO":"999","LAUNCH_DATE":"2021-03-11","MEAN_ANOMALY":"316.8366","FILE":"3404767","BSTAR":"-0.00004842900000","PERIOD":"95.592","APOAPSIS":"548.537","SITE":"AFETR","TLE_LINE2":"2 47788  53.0569 134.3575 0001919  43.2773 316.8366 15.06401873 62497","OBJECT_TYPE":"PAYLOAD","PERIAPSIS":"545.879","TIME_SYSTEM":"UTC","ECCENTRICITY":"0.00019190","GP_ID":"201421131","CLASSIFICATION_TYPE":"U","RA_OF_ASC_NODE":"134.3575","INCLINATION":"53.0569","EPOCH":"2022-04-16T18:29:05.817408","REV_AT_EPOCH":"6249","SEMIMAJOR_AXIS":"6925.343","MEAN_ELEMENT_THEORY":"SGP4"},{"PERIAPSIS":"545.877","TIME_SYSTEM":"UTC","TLE_LINE2":"2 47789  53.0552 139.1436 0001905  52.6453 307.4710 15.06405634 62424","OBJECT_TYPE":"PAYLOAD","ECCENTRICITY":"0.00019050","FILE":"3404767","SITE":"AFETR","BSTAR":"0.00000256130000","APOAPSIS":"548.516","PERIOD":"95.592","SEMIMAJOR_AXIS":"6925.331","REV_AT_EPOCH":"6242","EPOCH":"2022-04-16T19:40:04.650528","MEAN_ELEMENT_THEORY":"SGP4","CLASSIFICATION_TYPE":"U","INCLINATION":"53.0552","RA_OF_ASC_NODE":"139.1436","GP_ID":"201419382","DECAY_DATE":null,"OBJECT_ID":"2021-018C","EPHEMERIS_TYPE":"0","MEAN_MOTION_DOT":"-0.00000244","NORAD_CAT_ID":"47789","MEAN_MOTION":"15.06405634","COUNTRY_CODE":"US","TLE_LINE1":"1 47789U 21018C   22106.81949827 -.00000244  00000-0  25613-5 0  9999","LAUNCH_DATE":"2021-03-11","ELEMENT_SET_NO":"999","MEAN_ANOMALY":"307.4710","MEAN_MOTION_DDOT":"0.0000000000000","CENTER_NAME":"EARTH","REF_FRAME":"TEME","RCS_SIZE":"LARGE","ARG_OF_PERICENTER":"52.6453","OBJECT_NAME":"STARLINK-2315"},{"OBJECT_TYPE":"PAYLOAD","TLE_LINE2":"2 47790  53.0553 128.9566 0001116  71.1530 288.9580 15.06408351 62576","PERIAPSIS":"546.415","TIME_SYSTEM":"UTC","ECCENTRICITY":"0.00011160","FILE":"3404767","PERIOD":"95.592","APOAPSIS":"547.961","BSTAR":"-0.00009227000000","SITE":"AFETR","REV_AT_EPOCH":"6257","EPOCH":"2022-04-16T20:39:47.810592","SEMIMAJOR_AXIS":"6925.323","MEAN_ELEMENT_THEORY":"SGP4","GP_ID":"201420133","RA_OF_ASC_NODE":"128.9566","CLASSIFICATION_TYPE":"U","INCLINATION":"53.0553","OBJECT_ID":"2021-018D","DECAY_DATE":null,"EPHEMERIS_TYPE":"0","NORAD_CAT_ID":"47790","MEAN_MOTION_DOT":"-0.00001656","MEAN_MOTION":"15.06408351","COUNTRY_CODE":"US","TLE_LINE1":"1 47790U 21018D   22106.86097003 -.00001656  00000-0 -92270-4 0  9997","MEAN_ANOMALY":"288.9580","LAUNCH_DATE":"2021-03-11","ELEMENT_SET_NO":"999","REF_FRAME":"TEME","CENTER_NAME":"EARTH","MEAN_MOTION_DDOT":"0.0000000000000","OBJECT_NAME":"STARLINK-2319","ARG_OF_PERICENTER":"71.1530","RCS_SIZE":"LARGE"},{"MEAN_ELEMENT_THEORY":"SGP4","SEMIMAJOR_AXIS":"6925.342","REV_AT_EPOCH":"6215","EPOCH":"2022-04-16T21:07:38.994816","CLASSIFICATION_TYPE":"U","INCLINATION":"53.0518","RA_OF_ASC_NODE":"158.8645","GP_ID":"201420384","ECCENTRICITY":"0.00017440","PERIAPSIS":"545.999","TIME_SYSTEM":"UTC","TLE_LINE2":"2 47791  53.0518 158.8645 0001744  48.2927 311.8211 15.06402164 62157","OBJECT_TYPE":"PAYLOAD","SITE":"AFETR","BSTAR":"0.00006090700000","PERIOD":"95.592","APOAPSIS":"548.415","FILE":"3404767","LAUNCH_DATE":"2021-03-11","ELEMENT_SET_NO":"999","MEAN_ANOMALY":"311.8211","TLE_LINE1":"1 47791U 21018E   22106.88031244  .00000626  00000-0  60907-4 0  9991","RCS_SIZE":"LARGE","ARG_OF_PERICENTER":"48.2927","OBJECT_NAME":"STARLINK-2322","MEAN_MOTION_DDOT":"0.0000000000000","CENTER_NAME":"EARTH","REF_FRAME":"TEME","EPHEMERIS_TYPE":"0","DECAY_DATE":null,"OBJECT_ID":"2021-018E","COUNTRY_CODE":"US","MEAN_MOTION":"15.06402164","MEAN_MOTION_DOT":"0.00000626","NORAD_CAT_ID":"47791"},{"DECAY_DATE":null,"OBJECT_ID":"2021-018F","EPHEMERIS_TYPE":"0","MEAN_MOTION_DOT":"-0.00000882","NORAD_CAT_ID":"47792","MEAN_MOTION":"15.06402248","COUNTRY_CODE":"US","TLE_LINE1":"1 47792U 21018F   22106.82687128 -.00000882  00000-0 -40314-4 0  9990","ELEMENT_SET_NO":"999","LAUNCH_DATE":"2021-03-11","MEAN_ANOMALY":"314.4606","MEAN_MOTION_DDOT":"0.0000000000000","CENTER_NAME":"EARTH","REF_FRAME":"TEME","RCS_SIZE":"LARGE","ARG_OF_PERICENTER":"45.6542","OBJECT_NAME":"STARLINK-2334","PERIAPSIS":"545.858","TIME_SYSTEM":"UTC","TLE_LINE2":"2 47792  53.0530 139.0997 0001947  45.6542 314.4606 15.06402248 62422","OBJECT_TYPE":"PAYLOAD","ECCENTRICITY":"0.00019470","FILE":"3404767","SITE":"AFETR","BSTAR":"-0.00004031400000","PERIOD":"95.592","APOAPSIS":"548.555","SEMIMAJOR_AXIS":"6925.342","EPOCH":"2022-04-16T19:50:41.678592","REV_AT_EPOCH":"6242","MEAN_ELEMENT_THEORY":"SGP4","RA_OF_ASC_NODE":"139.0997","CLASSIFICATION_TYPE":"U","INCLINATION":"53.0530","GP_ID":"201420631"},{"ARG_OF_PERICENTER":"47.9063","OBJECT_NAME":"STARLINK-2338","RCS_SIZE":"LARGE","REF_FRAME":"TEME","MEAN_MOTION_DDOT":"0.0000000000000","CENTER_NAME":"EARTH","LAUNCH_DATE":"2021-03-11","ELEMENT_SET_NO":"999","MEAN_ANOMALY":"312.2090","TLE_LINE1":"1 47793U 21018G   22106.50988328 -.00000734  00000-0 -30383-4 0  9993","MEAN_MOTION":"15.06406268","COUNTRY_CODE":"US","NORAD_CAT_ID":"47793","MEAN_MOTION_DOT":"-0.00000734","EPHEMERIS_TYPE":"0","OBJECT_ID":"2021-018G","DECAY_DATE":null,"GP_ID":"201391695","INCLINATION":"53.0554","RA_OF_ASC_NODE":"140.5299","CLASSIFICATION_TYPE":"U","MEAN_ELEMENT_THEORY":"SGP4","EPOCH":"2022-04-16T12:14:13.915392","REV_AT_EPOCH":"6202","SEMIMAJOR_AXIS":"6925.329","BSTAR":"-0.00003038300000","APOAPSIS":"548.529","PERIOD":"95.592","SITE":"AFETR","FILE":"3404470","ECCENTRICITY":"0.00019270","TLE_LINE2":"2 47793  53.0554 140.5299 0001927  47.9063 312.2090 15.06406268 62027","OBJECT_TYPE":"PAYLOAD","TIME_SYSTEM":"UTC","PERIAPSIS":"545.860"},{"INCLINATION":"53.0535","RA_OF_ASC_NODE":"139.3229","CLASSIFICATION_TYPE":"U","GP_ID":"201419633","SEMIMAJOR_AXIS":"6925.393","EPOCH":"2022-04-16T18:41:42.994176","REV_AT_EPOCH":"6241","MEAN_ELEMENT_THEORY":"SGP4","FILE":"3404767","SITE":"AFETR","BSTAR":"-0.00021502000000","PERIOD":"95.593","APOAPSIS":"548.674","TIME_SYSTEM":"UTC","PERIAPSIS":"545.841","TLE_LINE2":"2 47794  53.0535 139.3229 0002045  44.1071 316.0081 15.06385602 62419","OBJECT_TYPE":"PAYLOAD","ECCENTRICITY":"0.00020450","MEAN_MOTION_DDOT":"0.0000000000000","CENTER_NAME":"EARTH","REF_FRAME":"TEME","RCS_SIZE":"LARGE","ARG_OF_PERICENTER":"44.1071","OBJECT_NAME":"STARLINK-2341","TLE_LINE1":"1 47794U 21018H   22106.77896984 -.00003482  00000-0 -21502-3 0  9994","ELEMENT_SET_NO":"999","LAUNCH_DATE":"2021-03-11","MEAN_ANOMALY":"316.0081","MEAN_MOTION_DOT":"-0.00003482","NORAD_CAT_ID":"47794","COUNTRY_CODE":"US","MEAN_MOTION":"15.06385602","DECAY_DATE":null,"OBJECT_ID":"2021-018H","EPHEMERIS_TYPE":"0"}];
